NORAD_CAT_ID,OBJECT_NAME,OBJECT_TYPE,EPOCH,MEAN_MOTION,ECCENTRICITY,INCLINATION,RA_OF_ASC_NODE,ARG_OF_PERICENTER,MEAN_ANOMALY,BSTAR,MEAN_MOTION_DOT,MEAN_MOTION_DDOT,TLE_LINE0,TLE_LINE1,TLE_LINE2,SEMIMAJOR_AXIS,PERIOD,APOGEE,PERIGEE,DECAYED
52708.0,STARLINK-3962,PAYLOAD,2023-04-02 20:57:50,15.08861067,0.0001262,53.2151,265.6796,66.1252,293.9872,0.00086445,0.00013504,0.0,0 STARLINK-3962,1 52708U 22053BE  23092.87350389  .00013504  00000-0  86445-3 0  9996,2 52708  53.2151 265.6796 0001262  66.1252 293.9872 15.08861067 49718,6917.816,95.436,540.554,538.808,0.0
52708.0,STARLINK-3962,PAYLOAD,2023-04-03 04:54:46,15.088456,0.0001116,53.2152,264.194,63.0581,297.0525,0.00033608,5.066e-05,0.0,0 STARLINK-3962,1 52708U 22053BE  23093.20470578  .00005066  00000-0  33608-3 0  9994,2 52708  53.2152 264.1940 0001116  63.0581 297.0525 15.08845600 49134,6917.863,95.437,540.5,538.956,0.0
52708.0,STARLINK-3962,PAYLOAD,2023-04-03 11:16:19,15.08841655,0.0001757,53.2158,263.0045,71.2637,288.8546,0.00010128,1.324e-05,0.0,0 STARLINK-3962,1 52708U 22053BE  23093.46966868  .00001324  00000-0  10128-3 0  9999,2 52708  53.2158 263.0045 0001757  71.2637 288.8546 15.08841655 49809,6917.875,95.437,540.956,538.525,0.0
52708.0,STARLINK-3962,PAYLOAD,2023-04-03 17:37:51,15.08840138,0.0001485,53.2157,261.8141,77.8869,282.2289,0.00018034,2.583e-05,0.0,0 STARLINK-3962,1 52708U 22053BE  23093.73462894  .00002583  00000-0  18034-3 0  9991,2 52708  53.2157 261.8141 0001485  77.8869 282.2289 15.08840138 49210,6917.88,95.438,540.772,538.718,0.0
52708.0,STARLINK-3962,PAYLOAD,2023-04-04 11:07:06,15.0884573,0.0001345,53.2156,258.5423,77.464,282.6502,0.00045714,6.996e-05,0.0,0 STARLINK-3962,1 52708U 22053BE  23094.46327035  .00006996  00000-0  45714-3 0  9996,2 52708  53.2156 258.5423 0001345  77.4640 282.6502 15.08845730 49959,6917.863,95.437,540.658,538.797,0.0
52708.0,STARLINK-3962,PAYLOAD,2023-04-04 20:39:25,15.08854393,0.0001375,53.2154,256.7574,79.8766,280.2381,0.00071365,0.00011092,0.0,0 STARLINK-3962,1 52708U 22053BE  23094.86070791  .00011092  00000-0  71365-3 0  9998,2 52708  53.2154 256.7574 0001375  79.8766 280.2381 15.08854393 50015,6917.836,95.437,540.653,538.75,0.0
52708.0,STARLINK-3962,PAYLOAD,2023-04-05 14:08:39,15.08841498,0.0001188,53.2156,253.4861,85.3087,274.804,0.00015888,2.242e-05,0.0,0 STARLINK-3962,1 52708U 22053BE  23095.58935028  .00002242  00000-0  15888-3 0  9996,2 52708  53.2156 253.4861 0001188  85.3087 274.8040 15.08841498 49493,6917.876,95.437,540.563,538.919,0.0
52708.0,STARLINK-3962,PAYLOAD,2023-04-05 17:19:26,15.0884245,0.0001353,53.2158,252.8917,89.2051,270.9096,0.00020435,2.966e-05,0.0,0 STARLINK-3962,1 52708U 22053BE  23095.72182972  .00002966  00000-0  20435-3 0  9991,2 52708  53.2158 252.8917 0001353  89.2051 270.9096 15.08842450 50149,6917.873,95.437,540.674,538.802,0.0
52708.0,STARLINK-3962,PAYLOAD,2023-04-06 09:13:17,15.08834556,0.0001013,53.2168,249.9169,85.6156,274.4952,5.1186e-05,5.27e-06,0.0,0 STARLINK-3962,1 52708U 22053BE  23096.38423175  .00000527  00000-0  51186-4 0  9996,2 52708  53.2168 249.9169 0001013  85.6156 274.4952 15.08834556 49613,6917.897,95.438,540.463,539.061,0.0
52708.0,STARLINK-3962,PAYLOAD,2023-04-06 20:20:59,15.08856967,0.0001129,53.2161,247.8357,85.6466,274.4655,0.0010225,0.0001603,0.0,0 STARLINK-3962,1 52708U 22053BE  23096.84790881  .00016030  00000-0  10225-2 0  9991,2 52708  53.2161 247.8357 0001129  85.6466 274.4655 15.08856967 49681,6917.829,95.436,540.475,538.913,0.0
52708.0,STARLINK-3962,PAYLOAD,2023-04-07 02:42:32,15.08847596,0.000156,53.2171,246.6457,87.4416,272.6755,0.00052686,8.109e-05,0.0,0 STARLINK-3962,1 52708U 22053BE  23097.11287042  .00008109  00000-0  52686-3 0  9998,2 52708  53.2171 246.6457 0001560  87.4416 272.6755 15.08847596 49728,6917.857,95.437,540.801,538.643,0.0
52708.0,STARLINK-3962,PAYLOAD,2023-04-07 10:39:27,15.08848019,0.0001957,53.2168,245.1607,97.1318,262.9897,0.00051914,7.986e-05,0.0,0 STARLINK-3962,1 52708U 22053BE  23097.44407110  .00007986  00000-0  51914-3 0  9999,2 52708  53.2168 245.1607 0001957  97.1318 262.9897 15.08848019 50401,6917.856,95.437,541.075,538.367,0.0
52708.0,STARLINK-3962,PAYLOAD,2023-04-08 02:33:19,15.08838247,0.000115,53.2156,242.1865,90.7123,269.4001,0.00032098,4.824e-05,0.0,0 STARLINK-3962,1 52708U 22053BE  23098.10647260  .00004824  00000-0  32098-3 0  9995,2 52708  53.2156 242.1865 0001150  90.7123 269.4001 15.08838247 49879,6917.886,95.438,540.546,538.955,0.0
52708.0,STARLINK-3962,PAYLOAD,2023-04-09 02:24:06,15.08834861,4.07e-05,53.2166,237.7271,127.4896,232.6134,2.0856e-05,4.4e-07,0.0,0 STARLINK-3962,1 52708U 22053BE  23099.10007308  .00000044  00000-0  20856-4 0  9999,2 52708  53.2166 237.7271 0000407 127.4896 232.6134 15.08834861 50026,6917.896,95.438,540.043,539.48,0.0
52708.0,STARLINK-3962,PAYLOAD,2023-04-09 16:42:34,15.08855625,0.0001055,53.2158,235.0503,88.4111,271.7002,0.0017256,0.00027293,0.0,0 STARLINK-3962,1 52708U 22053BE  23099.69623566  .00027293  00000-0  17256-2 0  9996,2 52708  53.2158 235.0503 0001055  88.4111 271.7002 15.08855625 50111,6917.833,95.437,540.427,538.968,0.0
52708.0,STARLINK-3962,PAYLOAD,2023-04-10 02:14:53,15.08843871,4.57e-05,53.2166,233.2659,196.1968,163.9009,0.00012886,1.764e-05,0.0,0 STARLINK-3962,1 52708U 22053BE  23100.09366947  .00001764  00000-0  12886-3 0  9990,2 52708  53.2166 233.2659 0000457 196.1968 163.9009 15.08843871 50179,6917.869,95.437,540.05,539.417,0.0
52708.0,STARLINK-3962,PAYLOAD,2023-04-10 11:47:12,15.08849675,0.0001066,53.2154,231.4821,122.8115,237.298,0.0018076,0.00028605,0.0,0 STARLINK-3962,1 52708U 22053BE  23100.49111465  .00028605  00000-0  18076-2 0  9996,2 52708  53.2154 231.4821 0001066 122.8115 237.2980 15.08849675 50861,6917.851,95.437,540.453,538.978,0.0
52708.0,STARLINK-3962,PAYLOAD,2023-04-10 18:08:44,15.08870751,9.88e-05,53.2156,230.2932,91.6298,268.4807,0.0023084,0.00036673,0.0,0 STARLINK-3962,1 52708U 22053BE  23100.75607068  .00036673  00000-0  23084-2 0  9993,2 52708  53.2156 230.2932 0000988  91.6298 268.4807 15.08870751 50278,6917.786,95.436,540.335,538.968,0.0
52708.0,STARLINK-3962,PAYLOAD,2023-04-11 02:05:40,15.08850889,0.0002275,53.2149,228.8105,65.8601,294.2628,0.00097694,0.00015299,0.0,0 STARLINK-3962,1 52708U 22053BE  23101.08727478  .00015299  00000-0  97694-3 0  9998,2 52708  53.2149 228.8105 0002275  65.8601 294.2628 15.08850889 50321,6917.847,95.437,541.286,538.138,0.0
52708.0,STARLINK-3962,PAYLOAD,2023-04-11 11:37:59,15.08852731,0.0001605,53.2171,227.0221,84.9658,275.1518,0.00050348,7.737e-05,0.0,0 STARLINK-3962,1 52708U 22053BE  23101.48471166  .00007737  00000-0  50348-3 0  9995,2 52708  53.2171 227.0221 0001605  84.9658 275.1518 15.08852731 51017,6917.841,95.437,540.817,538.596,0.0
52708.0,STARLINK-3962,PAYLOAD,2023-04-11 19:34:54,15.08858415,0.0001609,53.2165,225.5344,87.5874,272.5303,0.00071401,0.00011099,0.0,0 STARLINK-3962,1 52708U 22053BE  23101.81590865  .00011099  00000-0  71401-3 0  9999,2 52708  53.2165 225.5344 0001609  87.5874 272.5303 15.08858415 51065,6917.824,95.436,540.802,538.576,0.0
52708.0,STARLINK-3962,PAYLOAD,2023-04-12 14:39:32,15.08840397,0.000144,53.2164,221.9694,66.3399,293.7744,0.00042331,6.456e-05,0.0,0 STARLINK-3962,1 52708U 22053BE  23102.61079667  .00006456  00000-0  42331-3 0  9991,2 52708  53.2164 221.9694 0001440  66.3399 293.7744 15.08840397 51189,6917.879,95.438,540.74,538.748,0.0
52708.0,STARLINK-3962,PAYLOAD,2023-04-12 17:50:19,15.08847528,0.0001579,53.2166,221.3733,68.9674,291.1487,0.00085571,0.0001336,0.0,0 STARLINK-3962,1 52708U 22053BE  23102.74327657  .00013360  00000-0  85571-3 0  9995,2 52708  53.2166 221.3733 0001579  68.9674 291.1487 15.08847528 50577,6917.857,95.437,540.815,538.63,0.0
52708.0,STARLINK-3962,PAYLOAD,2023-04-13 08:08:47,15.08846811,0.0001801,53.2148,218.697,69.3372,290.7813,0.00069196,0.00010744,0.0,0 STARLINK-3962,1 52708U 22053BE  23103.33943841  .00010744  00000-0  69196-3 0  9998,2 52708  53.2148 218.6970 0001801  69.3372 290.7813 15.08846811 51299,6917.86,95.437,540.97,538.479,0.0
52708.0,STARLINK-3962,PAYLOAD,2023-04-13 14:30:19,15.08859945,0.0001578,53.2156,217.5072,69.9334,290.1828,0.0014965,0.00023622,0.0,0 STARLINK-3962,1 52708U 22053BE  23103.60439474  .00023622  00000-0  14965-2 0  9992,2 52708  53.2156 217.5072 0001578  69.9334 290.1828 15.08859945 50701,6917.819,95.436,540.776,538.593,0.0
52708.0,STARLINK-3962,PAYLOAD,2023-04-14 11:10:19,15.08866523,0.0001278,53.2161,213.6411,84.8197,275.2941,0.0010258,0.00016087,0.0,0 STARLINK-3962,1 52708U 22053BE  23104.46550425  .00016087  00000-0  10258-2 0  9995,2 52708  53.2161 213.6411 0001278  84.8197 275.2941 15.08866523 51465,6917.799,95.436,540.548,538.78,0.0
52708.0,STARLINK-3962,PAYLOAD,2023-04-15 12:36:30,15.08820738,0.0001341,53.2171,208.8837,104.9245,255.1896,0.00017041,2.424e-05,0.0,0 STARLINK-3962,1 52708U 22053BE  23105.52535541  .00002424  00000-0  17041-3 0  9993,2 52708  53.2171 208.8837 0001341 104.9245 255.1896 15.08820738 50994,6917.939,95.439,540.732,538.877,0.0
52708.0,STARLINK-3962,PAYLOAD,2023-04-15 17:22:40,15.08824687,0.0001214,53.2153,207.9911,102.9063,257.2064,0.0021951,0.00034805,0.0,0 STARLINK-3962,1 52708U 22053BE  23105.72408040  .00034805  00000-0  21951-2 0  9990,2 52708  53.2153 207.9911 0001214 102.9063 257.2064 15.08824687 51653,6917.927,95.439,540.632,538.952,0.0
52708.0,STARLINK-3962,PAYLOAD,2023-04-16 12:27:18,15.08856963,0.0001449,53.2158,204.4228,91.8967,268.2191,0.0015654,0.00024725,0.0,0 STARLINK-3962,1 52708U 22053BE  23106.51896206  .00024725  00000-0  15654-2 0  9996,2 52708  53.2158 204.4228 0001449  91.8967 268.2191 15.08856963 51149,6917.829,95.436,540.696,538.691,0.0
52708.0,STARLINK-3962,PAYLOAD,2023-04-16 14:02:41,15.08861782,0.0001397,53.2161,204.1256,92.1016,268.0136,0.0016814,0.00026589,0.0,0 STARLINK-3962,1 52708U 22053BE  23106.58520082  .00026589  00000-0  16814-2 0  9998,2 52708  53.2161 204.1256 0001397  92.1016 268.0136 15.08861782 51784,6917.814,95.436,540.645,538.712,0.0
